[{"OBJECT_NAME":"KUIPER-00057","OBJECT_ID":"2025-134T","EPOCH":"2026-03-09T17:50:26.275488","MEAN_MOTION":14.83766269,"ECCENTRICITY":0.00040733,"INCLINATION":51.8993,"RA_OF_ASC_NODE":230.4357,"ARG_OF_PERICENTER":273.9501,"MEAN_ANOMALY":86.0998,"EPHEMERIS_TYPE":0,"CLASSIFICATION_TYPE":"U","NORAD_CAT_ID":64517,"ELEMENT_SET_NO":999,"REV_AT_EPOCH":4011,"BSTAR":0.00072082033,"MEAN_MOTION_DOT":5.801e-5,"MEAN_MOTION_DDOT":0},{"OBJECT_NAME":"ORBCOMM FM38","OBJECT_ID":"2008-031A","EPOCH":"2026-03-09T12:32:55.620672","MEAN_MOTION":14.82733791,"ECCENTRICITY":0.0003838,"INCLINATION":48.4382,"RA_OF_ASC_NODE":129.4576,"ARG_OF_PERICENTER":107.9703,"MEAN_ANOMALY":252.1631,"EPHEMERIS_TYPE":0,"CLASSIFICATION_TYPE":"U","NORAD_CAT_ID":33060,"ELEMENT_SET_NO":999,"REV_AT_EPOCH":95410,"BSTAR":0.00030976245,"MEAN_MOTION_DOT":2.312e-5,"MEAN_MOTION_DDOT":0}]
